CRE (WAAS/PRN 138)      
1 28868U 05036A   24045.40882730 -.00000080  00000+0  00000+0 0  9990
2 28868   2.1125  87.1713 0001994 263.3494 193.2480  1.00271509 67595
IOR-W (EGNOS/PRN 126)   
1 28899U 05044A   24044.98102948 -.00000266  00000+0  00000+0 0  9997
2 28899   4.0538  41.9659 0001981 288.9812 309.1972  1.00271369 66933
QZS-1 (QZSS/PRN 183)    
1 37158U 10045A   24043.63889821 -.00000030  00000+0  00000+0 0  9994
2 37158  43.0859 125.8553 0002353 162.9921 212.9912  0.87714909 48886
GSAT-8 (GAGAN/PRN 127)  
1 37605U 11022A   24045.17830663  .00000080  00000+0  00000+0 0  9992
2 37605   0.0163 169.1958 0007824 115.2446 338.4890  1.00272444 46678
LUCH 5A (SDCM/PRN 140)  
1 37951U 11074B   24045.19233111 -.00000053  00000+0  00000+0 0  9991
2 37951   6.5637  86.9882 0002772 229.2872  63.7432  1.00274780 44625
SES-5 (EGNOS/PRN 136)   
1 38652U 12036A   24045.31162535  .00000028  00000+0  00000+0 0  9995
2 38652   0.0322 348.9612 0002008 333.6944 298.3076  1.00271211 42509
GSAT-10 (GAGAN/PRN 128) 
1 38779U 12051B   24045.15396477 -.00000170  00000+0  00000+0 0  9997
2 38779   0.0294 285.9956 0004468 352.9068   3.1921  1.00271727 41727
LUCH 5B (SDCM/PRN 125)  
1 38977U 12061A   24045.30736124 -.00000142  00000+0  00000+0 0  9991
2 38977   8.6159  57.7750 0001876 192.0511 348.3351  1.00271178 41613
ASTRA 5B (EGNOS/PRN 123)
1 39617U 14011B   24045.31528031  .00000132  00000+0  00000+0 0  9995
2 39617   0.1094 291.8590 0003937  15.2101 333.7323  1.00273469 36306
LUCH 5V (SDCM/PRN 141)  
1 39727U 14023A   24045.11460604 -.00000274  00000+0  00000+0 0  9997
2 39727   2.9887  76.7359 0003013 251.0428 311.8035  1.00273618553945
GSAT-15 (GAGAN/PRN 139) 
1 41028U 15065A   24044.91507997 -.00000263  00000+0  00000+0 0  9993
2 41028   0.0959 273.4656 0001443  18.4135 274.4586  1.00271653 30236
E 117 W B (WAAS/PRN 131)
1 41589U 16038B   24045.41507465 -.00000017  00000+0  00000+0 0  9999
2 41589   0.0069 197.6945 0000211 169.4870 169.1587  1.00273346 28142
SES-15 (WAAS/PRN 133)   
1 42709U 17026A   24045.42063181  .00000054  00000+0  00000+0 0  9995
2 42709   0.0204  47.1317 0000589 286.9966 192.0602  1.00273576 25627
QZS-2 (QZSS/PRN 184)    
1 42738U 17028A   24044.44563292 -.00000122  00000+0  00000+0 0  9995
2 42738  40.7752 255.5395 0749361 270.0732 279.4913  1.00269494 24563
QZS-3 (QZSS/PRN 189)    
1 42917U 17048A   24044.89840840 -.00000354  00000+0  00000+0 0  9999
2 42917   0.0650 148.4536 0002091 184.4563 260.9007  1.00267417 23692
QZS-4 (QZSS/PRN 185)    
1 42965U 17062A   24044.19360479 -.00000331  00000+0  00000+0 0  9991
2 42965  40.5697 354.3764 0750547 269.2321  87.2132  1.00288340 23244
BEIDOU-3 G1 (PRN 130)   
1 43683U 18085A   24044.98042031 -.00000283  00000+0  00000+0 0  9999
2 43683   1.8914 115.0107 0002036 323.0166 198.4414  1.00273797 19485
BEIDOU-3 G2 (PRN 144)   
1 45344U 20017A   24045.46974552 -.00000146  00000+0  00000+0 0  9997
2 45344   2.1767  24.3983 0002604 270.4469  98.2643  1.00271296 14711
BEIDOU-3 G3 (PRN 143)   
1 45807U 20040A   24045.04632703 -.00000359  00000+0  00000+0 0  9996
2 45807   0.6116  21.4255 0009325 293.8292 315.5276  1.00270235 13512
GALAXY 30 (WAAS/PRN 135)
1 46114U 20056C   24045.42063181  .00000032  00000+0  00000+0 0  9992
2 46114   0.0138 128.3243 0002177 193.5762 208.4239  1.00274177 12845
